QIANFAN-89              
1 63175U 25046S   25314.95485989  .00000106  00000+0  14634-3 0  9998
2 63175  88.9756 323.3308 0015385 212.0201 148.0016 13.50976063 43118
QIANFAN-90              
1 63176U 25046T   25314.90952401  .00000006  00000+0 -87401-5 0  9996
2 63176  88.9753 323.3079 0012422 209.0574 150.9887 13.50974112 43121
QIANFAN-91              
1 66033U 25233A   25314.90215565  .00000963  00000+0  39753-3 0  9998
2 66033  88.9956  65.6965 0016963 133.2114 227.0499 14.25928075  3506
QIANFAN-92              
1 66034U 25233B   25314.90110688  .00000964  00000+0  39764-3 0  9992
2 66034  88.9955  65.6961 0016577 135.6523 224.6002 14.26009864  3503
QIANFAN-93              
1 66035U 25233C   25314.89964321  .00000981  00000+0  40398-3 0  9996
2 66035  88.9956  65.6961 0015880 135.0990 225.1491 14.26093683  3503
QIANFAN-94              
1 66036U 25233D   25314.89926534  .00000978  00000+0  40253-3 0  9997
2 66036  88.9956  65.6962 0015958 134.7707 225.4787 14.26118817  3501
QIANFAN-95              
1 66037U 25233E   25314.89874303  .00000975  00000+0  40082-3 0  9991
2 66037  88.9956  65.6961 0015915 135.1559 225.0924 14.26163982  3506
QIANFAN-96              
1 66038U 25233F   25314.89846963  .00000955  00000+0  39260-3 0  9997
2 66038  88.9956  65.6960 0016581 136.9158 223.3337 14.26167540  3503
